1 45683U 20035AC  22365.04859174  .00015767  00000-0  10747-2 0  9999
2 45683  53.0546 244.8929 0001557  74.0506 286.0655 15.06411060142923
1 45683U 20035AC  22365.38032080  .00014193  00000-0  96923-3 0  9998
2 45683  53.0542 243.4037 0001539  74.2135 285.9023 15.06421099143385
1 45683U 20035AC  22365.77839417  .00011275  00000-0  77402-3 0  9999
2 45683  53.0539 241.6162 0001536  72.7933 287.3224 15.06429458143449
1 45683U 20035AC  23001.04378797 -.00011457  00000-0 -75171-3 0  9991
2 45683  53.0543 240.4254 0001345  70.9550 289.1585 15.06389952143484
1 45683U 20035AC  23001.04378797 -.00011457  00000-0 -75171-3 0  9991
2 45683  53.0543 240.4254 0001345  70.9550 289.1585 15.06389952143079
1 45683U 20035AC  23001.90630474  .00011238  00000-0  77229-3 0  9990
2 45683  53.0542 236.5537 0001240  73.9832 286.1293 15.06393269143617
1 45683U 20035AC  23001.90630474  .00011238  00000-0  77229-3 0  9990
2 45683  53.0542 236.5537 0001240  73.9832 286.1293 15.06393269143202
1 45683U 20035AC  23002.37073157  .00019422  00000-0  13187-2 0  9996
2 45683  53.0541 234.4697 0001320  65.3439 294.7688 15.06412675143680
1 45683U 20035AC  23002.90150096  .00012141  00000-0  83210-3 0  9999
2 45683  53.0539 232.0871 0001368  67.6537 292.4597 15.06419559143762
1 45683U 20035AC  23003.03419225  .00012593  00000-0  86226-3 0  9997
2 45683  53.0540 231.4912 0001370  68.3210 291.7925 15.06423844143378
1 45683U 20035AC  23003.63131149  .00002576  00000-0  19174-3 0  9997
2 45683  53.0539 228.8066 0001551  86.6476 273.4690 15.06410944143872
1 45683U 20035AC  23003.63131149  .00002576  00000-0  19174-3 0  9997
2 45683  53.0539 228.8066 0001551  86.6476 273.4690 15.06410944143467
1 45683U 20035AC  23004.02939462 -.00000256  00000-0  17000-5 0  9997
2 45683  53.0536 227.0226 0001412  74.7750 285.3395 15.06401787143933
1 45683U 20035AC  23004.02939462 -.00000256  00000-0  17000-5 0  9997
2 45683  53.0536 227.0226 0001412  74.7750 285.3395 15.06401787143528
1 45683U 20035AC  23004.89190207 -.00000070  00000-0  14180-4 0  9997
2 45683  53.0539 223.1505 0001489  76.8138 283.3017 15.06403259144060
1 45683U 20035AC  23005.28997798  .00001126  00000-0  94475-4 0  9998
2 45683  53.0545 221.3638 0001493  78.5240 281.5917 15.06409460144128
1 45683U 20035AC  23005.28997798  .00001126  00000-0  94475-4 0  9998
2 45683  53.0545 221.3638 0001493  78.5240 281.5917 15.06409460143712
1 45683U 20035AC  23005.62170955 -.00000840  00000-0 -37472-4 0  9992
2 45683  53.0545 219.8745 0001430  79.2597 280.8553 15.06412989144176
1 45683U 20035AC  23006.28518751 -.00001791  00000-0 -10137-3 0  9999
2 45683  53.0538 216.8958 0001470  76.8129 283.3024 15.06390764143861
1 45683U 20035AC  23006.61692563 -.00002789  00000-0 -16845-3 0  9990
2 45683  53.0542 215.4064 0001407  77.0749 283.0397 15.06388441144321
1 45683U 20035AC  23006.94866596 -.00001050  00000-0 -51636-4 0  9993
2 45683  53.0553 213.9170 0001384  77.0647 283.0496 15.06390781144370
1 45683U 20035AC  23007.41309193 -.00000871  00000-0 -39566-4 0  9999
2 45683  53.0546 211.8321 0001281  78.8771 281.2362 15.06394725144037
1 45683U 20035AC  23007.81117346 -.00000313  00000-0 -20995-5 0  9998
2 45683  53.0546 210.0448 0001254  78.5907 281.5222 15.06393627144506
1 45683U 20035AC  23008.54099017  .00001381  00000-0  11159-3 0  9997
2 45683  53.0548 206.7694 0001244  75.2955 284.8172 15.06391115144611
1 45683U 20035AC  23008.80637728  .00001851  00000-0  14317-3 0  9994
2 45683  53.0548 205.5779 0001245  76.0482 284.0645 15.06392071144650
1 45683U 20035AC  23008.80637728  .00001851  00000-0  14317-3 0  9994
2 45683  53.0548 205.5779 0001245  76.0482 284.0645 15.06392071144245
1 45683U 20035AC  23009.27080227  .00001837  00000-0  14219-3 0  9997
2 45683  53.0548 203.4932 0001264  74.5814 285.5314 15.06398501144722
1 45683U 20035AC  23009.27080227  .00001837  00000-0  14219-3 0  9997
2 45683  53.0548 203.4932 0001264  74.5814 285.5314 15.06398501144317
1 45683U 20035AC  23010.53138636  .00000966  00000-0  83723-4 0  9995
2 45683  53.0548 197.8342 0001321  75.4248 284.6887 15.06405652144505
1 45683U 20035AC  23010.79677926 -.00000040  00000-0  16201-4 0  9994
2 45683  53.0546 196.6426 0001298  75.2870 284.8262 15.06398221144541
1 45683U 20035AC  23010.86312480 -.00000073  00000-0  13995-4 0  9996
2 45683  53.0553 196.3446 0001266  74.0743 286.0385 15.06401307144965
1 45683U 20035AC  23011.52658817 -.00000154  00000-0  85746-5 0  9991
2 45683  53.0562 193.3656 0001305  72.4489 287.6642 15.06405336145069
1 45683U 20035AC  23011.79197075  .00000290  00000-0  38346-4 0  9997
2 45683  53.0555 192.1749 0001361  74.4914 285.6225 15.06409414144692
1 45683U 20035AC  23011.85831639  .00001659  00000-0  13023-3 0  9999
2 45683  53.0550 191.8768 0001416  75.8705 284.2441 15.06403947145116
1 45683U 20035AC  23012.78719443 -.00001549  00000-0 -85154-4 0  9995
2 45683  53.0559 187.7071 0001538  76.4662 283.6498 15.06381436144842
1 45683U 20035AC  23012.91988850 -.00001384  00000-0 -74074-4 0  9996
2 45683  53.0557 187.1113 0001541  75.9154 284.2006 15.06382541145273
1 45683U 20035AC  23013.18526932 -.00000367  00000-0 -57356-5 0  9990
2 45683  53.0547 185.9203 0001399  80.4807 279.6340 15.06391474145314
1 45683U 20035AC  23013.18526932 -.00000367  00000-0 -57356-5 0  9990
2 45683  53.0547 185.9203 0001399  80.4807 279.6340 15.06391474144908
1 45683U 20035AC  23013.78238595  .00000020  00000-0  20269-4 0  9997
2 45683  53.0547 183.2398 0001443  82.4070 277.7083 15.06400213145409
1 45683U 20035AC  23014.18046527 -.00001424  00000-0 -76718-4 0  9995
2 45683  53.0544 181.4531 0001315  84.0756 276.0382 15.06406178145053
1 45683U 20035AC  23014.44585781  .00002324  00000-0  17490-3 0  9993
2 45683  53.0542 180.2617 0001409  87.8629 272.2521 15.06389924145093
1 45683U 20035AC  23015.44106287  .00001384  00000-0  11181-3 0  9990
2 45683  53.0536 175.7940 0001516  87.9014 272.2149 15.06395826145658
1 45683U 20035AC  23015.70644825  .00000962  00000-0  83488-4 0  9995
2 45683  53.0552 174.6045 0001262  84.3796 275.7337 15.06398908145691
1 45683U 20035AC  23015.70644825  .00000962  00000-0  83488-4 0  9995
2 45683  53.0552 174.6045 0001262  84.3796 275.7337 15.06398908145286
1 45683U 20035AC  23016.56895905  .00000455  00000-0  49460-4 0  9996
2 45683  53.0546 170.7326 0001466  82.8901 277.2255 15.06398439145820
1 45683U 20035AC  23016.83434295  .00000893  00000-0  78797-4 0  9998
2 45683  53.0546 169.5401 0001327  78.4509 281.6629 15.06402559145868
1 45683U 20035AC  23016.83434295  .00000893  00000-0  78797-4 0  9998
2 45683  53.0546 169.5401 0001327  78.4509 281.6629 15.06402559145453
1 45683U 20035AC  23017.43147998 -.00000623  00000-0 -22928-4 0  9994
2 45683  53.0558 166.8605 0000928  58.7694 301.3386 15.06385507145952
1 45683U 20035AC  23017.43147998 -.00000623  00000-0 -22928-4 0  9994
2 45683  53.0558 166.8605 0000928  58.7694 301.3386 15.06385507145547
1 45683U 20035AC  23018.55936616  .00001824  00000-0  14130-3 0  9998
2 45683  53.0555 161.7955 0001162  82.0951 278.0170 15.06402734146121
1 45683U 20035AC  23018.55936616  .00001824  00000-0  14130-3 0  9998
2 45683  53.0555 161.7955 0001162  82.0951 278.0170 15.06402734145715
1 45683U 20035AC  23018.69205537  .00002868  00000-0  21129-3 0  9999
2 45683  53.0548 161.2000 0001130  71.8825 288.2287 15.06408538146142
1 45683U 20035AC  23019.42188455  .00001012  00000-0  86840-4 0  9992
2 45683  53.0564 157.9249 0001633  93.2622 266.8553 15.06390490146255
1 45683U 20035AC  23019.42188455  .00001012  00000-0  86840-4 0  9992
2 45683  53.0564 157.9249 0001633  93.2622 266.8553 15.06390490145849
1 45683U 20035AC  23020.08534661  .00001058  00000-0  89929-4 0  9991
2 45683  53.0566 154.9470 0001280  87.4139 272.6996 15.06403663145944
1 45683U 20035AC  23021.34593800  .00001271  00000-0  10424-3 0  9991
2 45683  53.0551 149.2888 0001488  81.3124 278.8034 15.06396655146130
1 45683U 20035AC  23022.60652560  .00001452  00000-0  11631-3 0  9992
2 45683  53.0550 143.6286 0001139  90.2966 269.8154 15.06402168146326
1 45683U 20035AC  23023.33634820  .00000981  00000-0  84759-4 0  9990
2 45683  53.0553 140.3537 0001384  83.4734 276.6413 15.06390867146439
1 45683U 20035AC  23023.60173259  .00002153  00000-0  16339-3 0  9995
2 45683  53.0546 139.1618 0001206  86.6835 273.4292 15.06397891146475
1 45683U 20035AC  23025.45944981  .00000584  00000-0  58101-4 0  9998
2 45683  53.0558 130.8225 0001421 114.3479 245.7658 15.06393726146754
1 45683U 20035AC  23025.59214219  .00001455  00000-0  11653-3 0  9995
2 45683  53.0548 130.2268 0000978  95.7514 264.3587 15.06398441147187
1 45683U 20035AC  23026.58734162  .00003494  00000-0  25331-3 0  9992
2 45683  53.0549 125.7591 0000952  94.0132 266.0966 15.06407553147338
1 45683U 20035AC  23026.58734162  .00003494  00000-0  25331-3 0  9992
2 45683  53.0549 125.7591 0000952  94.0132 266.0966 15.06407553146922
1 45683U 20035AC  23026.98542548  .00001091  00000-0  92085-4 0  9993
2 45683  53.0552 123.9726 0000945  84.7964 275.3132 15.06398301146981
1 45683U 20035AC  23027.51620100  .00002188  00000-0  16570-3 0  9996
2 45683  53.0544 121.5894 0001158  89.0115 271.1007 15.06401672147471
1 45683U 20035AC  23028.51140704  .00001439  00000-0  11546-3 0  9990
2 45683  53.0554 117.1244 0001160  62.7289 297.3818 15.06396731147621
1 45683U 20035AC  23028.51140704  .00001439  00000-0  11546-3 0  9990
2 45683  53.0554 117.1244 0001160  62.7289 297.3818 15.06396731147216
1 45683U 20035AC  23028.64409541  .00001367  00000-0  11065-3 0  9997
2 45683  53.0548 116.5253 0001241  99.1863 260.9266 15.06403870147647
1 45683U 20035AC  23029.63930117  .00001198  00000-0  99316-4 0  9993
2 45683  53.0560 112.0588 0001234  91.9186 268.1945 15.06399654147797
1 45683U 20035AC  23029.63930117  .00001198  00000-0  99316-4 0  9993
2 45683  53.0560 112.0588 0001234  91.9186 268.1945 15.06399654147382
1 45683U 20035AC  23030.23643112  .00000460  00000-0  49778-4 0  9995
2 45683  53.0559 109.3782 0001231  92.9443 267.1687 15.06390058147470
1 45683U 20035AC  23030.56815900  .00001024  00000-0  87623-4 0  9995
2 45683  53.0564 107.8889 0001140  91.5216 268.5904 15.06400433147936
1 45683U 20035AC  23030.63450504  .00001223  00000-0  10099-3 0  9991
2 45683  53.0553 107.5910 0001155  86.2623 273.8498 15.06400768147539
1 45683U 20035AC  23030.89989590 -.00000101  00000-0  12108-4 0  9990
2 45683  53.0559 106.3997 0001320  79.5067 280.6071 15.06396067147986
1 45683U 20035AC  23031.16528550  .00000830  00000-0  74602-4 0  9991
2 45683  53.0549 105.2085 0001185  78.7065 281.4057 15.06393600147612
1 45683U 20035AC  23031.56336281  .00001656  00000-0  13001-3 0  9995
2 45683  53.0566 103.4223 0001377  79.6220 280.4924 15.06401824148083
1 45683U 20035AC  23031.62970932  .00001896  00000-0  14611-3 0  9993
2 45683  53.0563 103.1242 0001366  79.2390 280.8752 15.06402153147684
1 45683U 20035AC  23031.89509577  .00001482  00000-0  11837-3 0  9993
2 45683  53.0551 101.9321 0001236  88.3509 271.7621 15.06402513148139
